SAUDISAT 1C             
1 27607U 02058C   23017.10824546  .00003237  00000+0  45858-3 0  9997
2 27607  64.5565   7.8897 0079624 254.0641 105.1678 14.76612106 80127
SAUDISAT 2              
1 28371U 04025F   23017.35208088  .00000823  00000+0  20261-3 0  9995
2 28371  98.4090 339.8755 0025720 164.5584 195.6394 14.54706502984385
SAUDISAT 3              
1 31118U 07012B   23017.33398613  .00000753  00000+0  13508-3 0  9997
2 31118  97.9967 324.5106 0013960 231.8674 128.1274 14.69472244844569
PISAT                   
1 41784U 16059B   23017.33418728  .00001754  00000+0  33948-3 0  9990
2 41784  97.8903  57.0786 0030886 210.9168 149.0217 14.64223676336981
FLYING LAPTOP           
1 42831U 17042G   23017.53620286  .00004200  00000+0  41498-3 0  9991
2 42831  97.3999 224.3189 0014039  18.0690 342.1055 14.92350015300010
SALSAT                  
1 46495U 20068K   23016.78190922  .00007967  00000+0  55272-3 0  9996
2 46495  97.7540 323.5638 0014315 275.1847  84.7746 15.05785138126277
